ONEWEB-0361             
1 49287U 21090J   23357.34005956  .00000038  00000+0  60589-4 0  9996
2 49287  87.9195  94.9658 0001577 104.0040 256.1269 13.20772417110592
ONEWEB-0362             
1 49288U 21090K   23357.40837716  .00000048  00000+0  87697-4 0  9991
2 49288  87.9193 125.4808 0001928 111.6661 248.4677 13.19725778107310
ONEWEB-0363             
1 49289U 21090L   23357.81038520 -.00016704  00000+0 -41136-1 0  9996
2 49289  87.9193  94.8677 0001408  63.6087 296.5191 13.20860038111495
ONEWEB-0364             
1 49290U 21090M   23357.77250643 -.00003909  00000+0 -96467-2 0  9996
2 49290  87.9205  94.8956 0001944 105.4279 254.7069 13.20789459112616
ONEWEB-0365             
1 49291U 21090N   23357.72111326  .00000111  00000+0  24593-3 0  9998
2 49291  87.9196 125.4094 0001685 108.6369 251.4947 13.19727601108159
ONEWEB-0366             
1 49292U 21090P   23357.34023345 -.00000086  00000+0 -26661-3 0  9991
2 49292  87.8979 110.2289 0001412 111.6808 248.4472 13.14501385108429
ONEWEB-0367             
1 49293U 21090Q   23357.80881228  .00000033  00000+0  49380-4 0  9999
2 49293  87.9193  94.8605 0001530 116.3196 243.8094 13.20773682111488
ONEWEB-0368             
1 49294U 21090R   23357.32743248  .00001104  00000+0  26843-2 0  9993
2 49294  87.9202  94.9855 0000937 124.9345 235.1876 13.20769460111277
